DELTA 1 DEB             
1 12000U 73086GL  24125.46260951  .00000012  00000+0  45624-3 0  9990
2 12000 102.3060 106.6475 0021015 318.8037 193.9249 12.36329089452534
